GLOBALSTAR M001         
1 25162U 98008A   25011.85808324 -.00000095  00000+0  12134-4 0  9997
2 25162  52.0042  68.2312 0001115 264.9097 266.9959 12.38205061224347
GLOBALSTAR M004         
1 25163U 98008B   25011.84539799 -.00000072  00000+0  17438-3 0  9990
2 25163  51.9978 171.1092 0002063 316.1258 197.7613 12.63384906241920
GLOBALSTAR M002         
1 25164U 98008C   25011.88493849 -.00000041  00000+0  69668-3 0  9998
2 25164  52.0014 272.1080 0000531 186.5373 173.5440 11.61506678165900
GLOBALSTAR M003         
1 25165U 98008D   25011.93979604 -.00000029  00000+0  64257-3 0  9998
2 25165  51.9969 241.2549 0007978 344.4287 117.8596 12.12065002214272
GLOBALSTAR M014         
1 25306U 98023A   25011.88127834 -.00000050  00000+0  52046-3 0  9993
2 25306  51.9802 198.6264 0002198  81.4961  62.3613 11.65478023172949
GLOBALSTAR M006         
1 25307U 98023B   25011.92560090 -.00000040  00000+0  73350-3 0  9994
2 25307  51.9914 245.1490 0003290 165.1053 294.9008 11.58171401198726
GLOBALSTAR M015         
1 25308U 98023C   25011.86966125 -.00000024  00000+0  11278-2 0  9999
2 25308  51.9851 336.5934 0012548 156.9340 243.1632 11.48856448176116
GLOBALSTAR M008         
1 25309U 98023D   25011.92835281 -.00000083  00000+0  10405-3 0  9992
2 25309  51.9978 291.0886 0001968 196.3040 241.7699 12.36060178218521
